1 48431C 21040D   22040.15885920 -.00012101  00000+0 -81058-3 0   401
2 48431  53.0554 358.3748 0001334  80.7339 142.1264 15.06420065    13
1 48431C 21040D   22040.52171859 -.00000559  00000+0 -37430-4 0   401
2 48431  53.0552 356.7458 0001281  80.3432 311.4302 15.06406169    15
1 48431C 21040D   22040.82152000 -.00014640  00000+0 -98087-3 0   401
2 48431  53.0551 355.4000 0001234  80.2671 138.2407 15.06414026    17
1 48431C 21040D   22041.15452515  .00006611  00000+0  44301-3 0   410
2 48431  53.0550 353.9051 0001235  79.2705 146.1585 15.06386875    17
1 48431C 21040D   22041.49306968  .00013964  00000+0  93545-3 0   410
2 48431  53.0549 352.3852 0001220  78.7528 183.6213 15.06392143    17
1 48431C 21040D   22042.16528367 -.00006119  00000+0 -40974-3 0   429
2 48431  53.0551 349.3675 0001338  79.2234 230.6295 15.06428704    15
1 48431C 21040D   22042.48854460 -.00006864  00000+0 -45957-3 0   423
2 48431  53.0552 347.9162 0001463  79.3008 184.6161 15.06431684    11
1 48431C 21040D   22042.86682182 -.00026601  00000+0 -17818-2 0   420
2 48431  53.0554 346.2179 0001473  79.8651  76.6300 15.06435464    18
1 48431C 21040D   22043.19568807 -.00043065  00000+0 -28866-2 0   433
2 48431  53.0555 344.7416 0001402  78.0948  62.8694 15.06426255    19
1 48431C 21040D   22043.48419666 -.00015896  00000+0 -10660-2 0   437
2 48431  53.0557 343.4463 0001318  77.1969 189.2487 15.06382535    14
1 48431C 21040D   22043.88455841  .00015393  00000+0  10322-2 0   431
2 48431  53.0559 341.6492 0001247  76.0093 202.7802 15.06351115    17
1 48431C 21040D   22044.20190376  .00023163  00000+0  15529-2 0   446
2 48431  53.0560 340.2248 0001270  75.9148 124.7574 15.06353808    18
1 48431C 21040D   22044.47985448  .00006888  00000+0  46191-3 0   442
2 48431  53.0558 338.9777 0001273  73.3955 195.4097 15.06361074    16
1 48431C 21040D   22044.85122479  .00008672  00000+0  58116-3 0   444
2 48431  53.0562 337.3101 0001287  76.2948  47.5396 15.06383432    15
1 48431C 21040D   22045.19877553  .00017822  00000+0  11940-2 0   453
2 48431  53.0561 335.7501 0001297  76.4024 133.2448 15.06383582    15
1 48431C 21040D   22045.47551710  .00002075  00000+0  13899-3 0   458
2 48431  53.0561 334.5079 0001262  76.1879 195.0549 15.06405173    18
1 48431C 21040D   22045.84100082 -.00018882  00000+0 -12650-2 0   459
2 48431  53.0560 332.8673 0001254  77.1356  17.2363 15.06420521    13
1 48431C 21040D   22046.17568348 -.00011259  00000+0 -75463-3 0   463
2 48431  53.0558 331.3650 0001256  76.8825  33.5141 15.06398371    10
1 48431C 21040D   22046.47118569 -.00007871  00000+0 -52763-3 0   465
2 48431  53.0557 330.0386 0001312  77.9170 195.8815 15.06389040    12
1 48431C 21040D   22047.16960097  .00014898  00000+0  99849-3 0   475
2 48431  53.0552 326.9038 0001370  78.6019  24.7870 15.06373678    10
1 48431C 21040D   22047.50473126  .00011887  00000+0  79666-3 0   475
2 48431  53.0548 325.4001 0001416  74.0828  47.7152 15.06376821    19
1 48431C 21040D   22047.83506050  .00005656  00000+0  37888-3 0   471
2 48431  53.0551 323.9167 0001413  78.5895  35.5702 15.06398611    16
1 48431C 21040D   22048.18439814  .00007140  00000+0  47854-3 0   488
2 48431  53.0547 322.3497 0001522  77.1203 132.5767 15.06377523    17
1 48431C 21040D   22048.50125903 -.00013990  00000+0 -93699-3 0   485
2 48431  53.0549 320.9262 0001518  78.1865  50.8021 15.06425605    13
1 48431C 21040D   22048.83022524 -.00008735  00000+0 -58507-3 0   486
2 48431  53.0549 319.4494 0001562  78.1154  35.8818 15.06416735    14
1 48431C 21040D   22049.16250513  .00001808  00000+0  12112-3 0   499
2 48431  53.0548 317.9578 0001603  78.5982  38.3829 15.06403699    13
1 48431C 21040D   22049.53108147 -.00016731  00000+0 -11210-2 0   495
2 48431  53.0550 316.3032 0001564  77.9525 238.9434 15.06413723    15
1 48431C 21040D   22049.86041111 -.00020058  00000+0 -13444-2 0   496
2 48431  53.0549 314.8247 0001502  77.6858 226.1755 15.06404764    12
1 48431C 21040D   22050.13646168 -.00034258  00000+0 -22958-2 0   500
2 48431  53.0549 313.5855 0001462  74.7445 286.9822 15.06425383    17
1 48431C 21040D   22050.45399272 -.00005816  00000+0 -38988-3 0   505
2 48431  53.0549 312.1599 0001502  74.8811 209.8096 15.06384706    10
1 48431C 21040D   22050.85591403  .00005488  00000+0  36784-3 0   504
2 48431  53.0548 310.3556 0001531  75.8902 229.6159 15.06378258    11
1 48431C 21040D   22051.17135243  .00016805  00000+0  11262-2 0   515
2 48431  53.0547 308.9396 0001539  76.2513 140.8179 15.06375664    10
1 48431C 21040D   22051.50226873  .00004361  00000+0  29222-3 0   512
2 48431  53.0548 307.4541 0001548  76.4779 136.1370 15.06387197    18
1 48431C 21040D   22051.82081548  .00001812  00000+0  12139-3 0   512
2 48431  53.0546 306.0240 0001540  77.4646  63.5851 15.06399762    11
1 48431C 21040D   22052.12709256  .00003571  00000+0  23919-3 0   522
2 48431  53.0544 304.6490 0001580  77.9105 285.0131 15.06400955    18
1 48431C 21040D   22052.37571453 -.00017430  00000+0 -11677-2 0   523
2 48431  53.0543 303.5329 0001596  78.7405 193.2113 15.06418107    13
1 48431C 21040D   22052.81129391 -.00012839  00000+0 -86047-3 0   524
2 48431  53.0542 301.5774 0001639  80.2558  35.1844 15.06400438    12
1 48431C 21040D   22053.49496976  .00001931  00000+0  12947-3 0   533
2 48431  53.0540 298.5082 0001620  80.3931 144.6913 15.06373361    10
1 48431C 21040D   22053.80901655  .00002967  00000+0  19893-3 0   530
2 48431  53.0538 297.0983 0001597  80.7791  48.3064 15.06376439    18
1 48431C 21040D   22054.15853675  .00013393  00000+0  89766-3 0   549
2 48431  53.0537 295.5292 0001622  80.7234 144.8460 15.06371868    17
1 48431C 21040D   22054.49015536  .00007862  00000+0  52695-3 0   547
2 48431  53.0539 294.0405 0001643  80.5277 144.3917 15.06379949    17
1 48431C 21040D   22054.80294057  .00002259  00000+0  15137-3 0   544
2 48431  53.0539 292.6364 0001651  80.5476  41.5354 15.06388848    16
1 48431C 21040D   22055.14029060  .00013431  00000+0  89991-3 0   556
2 48431  53.0539 291.1219 0001679  80.5972  71.9511 15.06384884    18
1 48431C 21040D   22055.51946836  .00009455  00000+0  63339-3 0   555
2 48431  53.0542 289.4197 0001696  80.3596 329.6128 15.06395184    18
1 48431C 21040D   22055.85467370 -.00016993  00000+0 -11385-2 0   553
2 48431  53.0542 287.9149 0001670  80.3879 348.4164 15.06416552    16
1 48431C 21040D   22056.14704220 -.00009043  00000+0 -60600-3 0   568
2 48431  53.0542 286.6024 0001654  80.1579 135.0614 15.06402159    19
1 48431C 21040D   22056.49703816  .00008015  00000+0  53717-3 0   563
2 48431  53.0545 285.0313 0001617  79.9511 234.3675 15.06381248    12
1 48431C 21040D   22056.85032581  .00004128  00000+0  27666-3 0   562
2 48431  53.0545 283.4454 0001616  80.6117 350.6411 15.06388095    17
1 48431C 21040D   22057.22640741  .00007257  00000+0  48619-3 0   575
2 48431  53.0544 281.7572 0001626  80.7319 231.1396 15.06391837    17
1 48431C 21040D   22057.54095876  .00005946  00000+0  39838-3 0   579
2 48431  53.0544 280.3452 0001619  81.5143 137.1191 15.06395766    18
1 48431C 21040D   22057.84580759 -.00015067  00000+0 -10096-2 0   572
2 48431  53.0543 278.9768 0001588  82.2252 350.5249 15.06411061    16
1 48431C 21040D   22058.13887979 -.00014944  00000+0 -10015-2 0   584
2 48431  53.0540 277.6612 0001553  82.6982 140.2780 15.06404463    15
1 48431C 21040D   22058.49096720  .00003813  00000+0  25560-3 0   582
2 48431  53.0540 276.0807 0001501  83.4021 250.0230 15.06378135    16
1 48431C 21040D   22058.88817613  .00004894  00000+0  32805-3 0   587
2 48431  53.0535 274.2977 0001494  84.4359 244.2367 15.06379167    16
1 48431C 21040D   22059.20694052  .00005533  00000+0  37078-3 0   593
2 48431  53.0533 272.8668 0001497  84.4687 173.8104 15.06384617    14
1 48431C 21040D   22059.53141676  .00004321  00000+0  28958-3 0   599
2 48431  53.0531 271.4103 0001494  85.3448 133.5395 15.06388892    17
1 48431C 21040D   22059.86390337  .00005123  00000+0  34328-3 0   594
2 48431  53.0528 269.9177 0001515  85.5207 137.4422 15.06388141    16
1 48431C 21040D   22060.18124877  .00006058  00000+0  40587-3 0   609
2 48431  53.0526 268.4929 0001522  86.0048  58.8748 15.06392607    19
1 48431C 21040D   22060.49880137  .00005393  00000+0  36130-3 0   601
2 48431  53.0525 267.0674 0001524  85.6306 342.2966 15.06395355    19
1 48431C 21040D   22061.17915163 -.00018074  00000+0 -12113-2 0   612
2 48431  53.0532 264.0132 0001545  82.8511  76.6825 15.06408312    13
1 48431C 21040D   22061.49446242  .00004731  00000+0  31690-3 0   619
2 48431  53.0524 262.5972 0001552  85.2637 345.1643 15.06404938    15
1 48431C 21040D   22061.82706234 -.00016651  00000+0 -11155-2 0   615
2 48431  53.0525 261.1040 0001512  85.0126 350.1239 15.06420137    10
1 48431C 21040D   22062.19392401 -.00010571  00000+0 -70832-3 0   627
2 48431  53.0527 259.4568 0001484  84.6083 181.1550 15.06406400    17
1 48431C 21040D   22062.55157622  .00002747  00000+0  18404-3 0   622
2 48431  53.0529 257.8511 0001458  84.2965 322.1057 15.06393177    10
1 48431C 21040D   22062.79895272  .00005500  00000+0  36855-3 0   628
2 48431  53.0530 256.7404 0001454  84.8864 223.7895 15.06390842    13
1 48431C 21040D   22063.14618473 -.00000514  00000+0 -34454-4 0   631
2 48431  53.0532 255.1815 0001444  84.1749 308.5844 15.06402232    11
1 48431C 21040D   22063.54307081 -.00022368  00000+0 -14989-2 0   635
2 48431  53.0535 253.3997 0001369  84.5134 301.7641 15.06415725    14
1 48431C 21040D   22063.86404809  .00004025  00000+0  26979-3 0   637
2 48431  53.0535 251.9586 0001331  85.7978 242.1374 15.06381592    15
1 48431C 21040D   22064.14115870  .00013042  00000+0  87467-3 0   645
2 48431  53.0540 250.7160 0001270  81.8494 309.6999 15.06351177    16
1 48431C 21040D   22064.49322573  .00004288  00000+0  28735-3 0   648
2 48431  53.0537 249.1341 0001285  85.9181  55.9265 15.06392341    14
